TERRA                   
1 25994U 99068A   21162.53800161  .00000052  00000-0  21580-4 0  9994
2 25994  98.1759 237.0700 0001417  90.7478  22.6569 14.57125998142601
SL-16 R/B               
1 26070U 00006B   21162.37769709 -.00000127  00000-0 -40630-4 0  9990
2 26070  70.9997 139.0119 0018689 295.1244  64.7939 14.15469812103420
MTI                     
1 26102U 00014A   21161.70100883  .00008522  00000-0  10308-3 0  9996
2 26102  97.4670  67.9189 0006263   2.1535 357.9748 15.60946304180290
TITAN 4B R/B            
1 26474U 00047B   21162.40482565  .00000092  00000-0  18805-4 0  9997
2 26474  67.9921 167.5113 0054828 167.8451 192.4030 14.96159954132932
ENVISAT                 
1 27386U 02009A   21162.54242531  .00000007  00000-0  15760-4 0  9995
2 27386  98.1482 156.9017 0001265  90.0582  19.9983 14.38029259 10156
IDEFIX & ARIANE 42P R/B 
1 27422U 02021B   21162.43779320 -.00000001  00000-0  16252-4 0  9991
2 27422  98.4023 115.6471 0010985 249.6270 110.3733 14.29321228996447
AQUA                    
1 27424U 02022A   21162.55941951  .00000087  00000-0  29406-4 0  9996
2 27424  98.2097 103.9676 0001046  35.6473  79.7443 14.57112233 16210
CZ-4B R/B               
1 27432U 02024C   21162.51138712 -.00000018  00000-0  14824-4 0  9999
2 27432  99.0847 176.8179 0049488 243.0070 270.8431 14.14109737984390
MIDORI II (ADEOS-II)    
1 27597U 02056A   21162.41699024  .00000023  00000-0  27069-4 0  9993
2 27597  98.5644 107.8505 0001863  55.4162 304.7194 14.27502951963029
H-2A R/B                
1 27601U 02056E   21162.54723045  .00000044  00000-0  31018-4 0  9996
2 27601  98.1893 185.1071 0070820 287.8768 184.2683 14.31995136966085
CZ-4B R/B               
1 28059U 03049C   21162.53838283  .00000028  00000-0  18371-4 0  9996
2 28059  98.4951  89.2418 0051079 120.1402 240.4869 14.52653900934965
CZ-2C R/B               
1 28222U 04012C   21162.47980402  .00000473  00000-0  31930-4 0  9993
2 28222  97.7269 133.2239 0045165 240.9881 232.3150 15.10892900940198
SL-16 R/B               
1 28353U 04021B   21162.58889406 -.00000062  00000-0 -76464-5 0  9990
2 28353  71.0024 266.1081 0004267 177.1166 182.9981 14.14248398877913
CZ-4B R/B               
1 28415U 04035C   21162.39206494  .00000607  00000-0  43534-4 0  9997
2 28415  97.5651 205.0294 0050602 206.3385 153.5269 15.07125954917699
CZ-2C R/B               
1 28480U 04046B   21162.53522580  .00000012  00000-0  19964-4 0  9994
2 28480  98.0497 175.0180 0140686 241.1306 231.1106 14.25754285861580
ARIANE 5 R/B            
1 28499U 04049H   21161.82711486  .00000066  00000-0  15493-4 0  9995
2 28499  98.0698 271.0365 0091706 194.2808 282.3429 14.80124921889145
CZ-2D R/B               
1 28738U 05024B   21162.55496927  .00000390  00000-0  26009-4 0  9991
2 28738  97.3605 178.7984 0012567  29.7379 330.4564 15.12417475875677
SUZAKU (ASTRO-EII)      
1 28773U 05025A   21162.45349290  .00000753  00000-0  31427-4 0  9993
2 28773  31.3801 200.9793 0004529 224.0343 135.9944 15.18410257878555
ALOS (DAICHI)           
1 28931U 06002A   21162.46966358  .00000107  00000-0  29596-4 0  9993
2 28931  97.8859 137.4724 0002119  58.8515 301.2890 14.62845041820181
H-2A R/B                
1 28932U 06002B   21162.56791606  .00000194  00000-0  24060-4 0  9994
2 28932  98.3271 179.1944 0087183 226.1499 251.5577 14.92569613834701
AKARI (ASTRO-F)         
1 28939U 06005A   21162.51961359  .00003988  00000-0  99352-4 0  9993
2 28939  98.2423 185.1405 0088185 145.1201 215.5864 15.37006205835993
RESURS-DK 1             
1 29228U 06021A   21162.55768456  .00000104  00000-0  15125-4 0  9993
2 29228  69.9358 353.7164 0007650 270.3567  89.6717 15.02700898826668
GENESIS 1               
1 29252U 06029A   21162.49738867  .00000354  00000-0  26821-4 0  9996
2 29252  64.5207 206.8039 0043257 317.7085  42.0705 15.18677871822614
CZ-4B R/B               
1 29507U 06046C   21162.55683011  .00001028  00000-0  83679-4 0  9998
2 29507  97.7402 188.5053 0048541  36.7495 323.7041 15.00908374799226
CZ-2C R/B               
1 31114U 07010B   21162.54964469  .00000061  00000-0  47231-4 0  9995
2 31114  98.2330 356.6790 0058644 300.6618  58.8787 14.19365880733948
COSMO-SKYMED 1          
1 31598U 07023A   21162.49883563  .00000158  00000-0  26414-4 0  9991
2 31598  97.8897 346.4739 0001386  92.2994 267.8379 14.82154727758019
GENESIS 2               
1 31789U 07028A   21162.52468635  .00000188  00000-0  19266-4 0  9991
2 31789  64.5016 249.1068 0005743 190.2407 169.8600 15.17788111769602
COSMOS 2428             
1 31792U 07029A   21162.52738651  .00000316  00000-0  19770-3 0  9996
2 31792  70.8992 238.4274 0010900 247.1922 112.8047 14.12281570719478
SL-16 R/B               
1 31793U 07029B   21162.54334913  .00000231  00000-0  14527-3 0  9993
2 31793  70.9755 212.0371 0001686 268.3367 194.9060 14.14449329720414
KORONAS-FOTON           
1 33504U 09003A   21162.54801330  .00000140  00000-0  55182-5 0  9994
2 33504  82.4425 225.4201 0020486 114.7040 245.6328 15.15999015681768
H-2A R/B                
1 38341U 12025E   21162.52803631  .00000111  00000-0  20512-4 0  9996
2 38341  98.5274 347.6107 0055841 157.3829 202.9863 14.84230024490621
CUSAT 2 & FALCON 9 R/B  
1 39271U 13055G   21162.44982920  .00008546  00000-0  19850-3 0  9995
2 39271  80.9652 239.5673 0570643 167.0553 194.6033 14.52543563402764
SL-4 R/B                
1 39679U 14021B   21162.48792194  .00000190  00000-0  27378-4 0  9999
2 39679  51.6150 240.6065 0170556 110.3771 251.5611 15.06992721393155
ALOS-2                  
1 39766U 14029A   21162.50630716  .00000210  00000-0  35018-4 0  9991
2 39766  97.9223 259.9532 0001577  89.0908 271.0492 14.79473089380787
CZ-2C R/B               
1 40306U 14071B   21162.56389775  .00004256  00000-0  82033-4 0  9995
2 40306  97.3708 120.0240 0012176 299.8207  60.1832 15.48365439369345
SL-27 R/B               
1 40354U 14084B   21162.57363526  .00001003  00000-0  24976-4 0  9998
2 40354  74.7374   4.6886 0036188  10.5524 349.6439 15.41117116363430
YAOGAN 29               
1 41038U 15069A   21162.46030824 -.00000001  00000-0  68781-5 0  9993
2 41038  98.0376 156.4684 0001704 112.1060 248.0334 14.80506938299398
ASTRO-H (HITOMI)        
1 41337U 16012A   21162.57197831  .00000236  00000-0  12199-4 0  9998
2 41337  31.0047 252.5394 0012320  19.8529 340.2584 14.98846278291428
HXMT (HUIYAN)           
1 42758U 17034A   21162.56002507  .00000213  00000-0  26752-4 0  9990
2 42758  43.0173 225.4749 0007516 125.0603 341.8533 15.09198833220126
CZ-2C R/B               
1 43521U 18054D   21162.33792478  .00000806  00000-0  45367-4 0  9991
2 43521  35.1525 127.4500 0081220  43.9611 316.7529 15.11531655163471
AEOLUS                  
1 43600U 18066A   21162.43886302  .00034696  00000-0  13637-3 0  9991
2 43600  96.7099 169.3697 0006849  91.7889 268.4168 15.86811729162298
SAOCOM 1A               
1 43641U 18076A   21162.50729279  .00000018  00000-0  88802-5 0  9993
2 43641  97.8903 349.5270 0001460  80.3230 279.8154 14.82157454144784
CREW DRAGON DEMO-1 DEB  
1 44064U 19011B   21162.57136690  .00154364  20607-4  37002-3 0  9996
2 44064  51.6203 267.2700 0007569 331.1556  28.9033 15.96161608129484
SAOCOM 1B               
1 46265U 20059A   21162.53840995 -.00000099  00000-0 -58768-5 0  9993
2 46265  97.8886 348.6102 0001448  86.8704 273.2696 14.82151148 42180
CZ-2F R/B               
1 46390U 20063B   21162.50867644  .00283361  51526-4  25902-3 0  9992
2 46390  50.1943 351.4202 0002462 255.9611 104.1110 16.11878144 44531
2020-063G               
1 46395U 20063G   21162.29218425  .00025614  00000-0  97289-4 0  9990
2 46395  50.2034   7.4309 0006866  86.8717 273.3053 15.87370827 44301
SL-4 R/B                
1 47547U 21008B   21162.45302266  .00074843  59645-5  28830-3 0  9992
2 47547  67.1404  53.6490 0393586 331.7979  26.2336 15.22775380 19441
TIANHE                  
1 48274U 21035A   21162.61673610  .00003761  00000-0  45053-4 0  9996
2 48274  41.4701 317.0976 0008824 266.7927 151.5022 15.62354299  6826
